     2.100          NAVIGATION                              RINEX VERSION / TYPE
fic2rin                                 04/02/2010 00:48:12 PGM / RUN BY / DATE
                                                            END OF HEADER
21 10  4  1 21 59 44.0 -.506304204464D-04 -.250111042988D-11  .000000000000D+00
     .700000000000D+01  .420937500000D+02  .486805991709D-08  .116432277273D+01
     .241585075855D-05  .162430993514D-01  .123158097267D-04  .515369990730D+04
     .424784000000D+06 -.240281224251D-06  .383746960784D+00  .124797224998D-06
     .933255308298D+00  .129281250000D+03 -.250570632564D+01 -.824962934446D-08
    -.468590947265D-09  .100000000000D+01  .157700000000D+04  .000000000000D+00
     .240000000000D+01  .000000000000D+00 -.121071934700D-07  .700000000000D+01
     .419946000000D+06  .400000000000D+01
22 10  4  1 21 59 44.0  .175482127815D-03 -.909494701773D-12  .000000000000D+00
     .000000000000D+00  .108343750000D+03  .528593446610D-08 -.925269642269D+00
     .575184822083D-05  .512032851111D-02  .467337667942D-05  .515365834999D+04
     .424784000000D+06 -.707805156708D-07  .144591636573D+01  .108033418655D-06
     .935483072133D+00  .276593750000D+03 -.191626816897D+01 -.862357349216D-08
     .290012080167D-09  .100000000000D+01  .157700000000D+04  .000000000000D+00
     .240000000000D+01  .000000000000D+00 -.176951289177D-07  .000000000000D+00
     .423666000000D+06  .400000000000D+01
14 10  4  1 23 59 44.0  .287285074592D-04  .477484718431D-11  .000000000000D+00
     .200000000000D+02 -.645625000000D+02  .429232164957D-08 -.816745157994D+00
    -.327825546265D-05  .494678493124D-02  .262446701527D-05  .515372511482D+04
     .431984000000D+06 -.484287738800D-07  .251080501062D+01  .156462192535D-06
     .986504897329D+00  .343468750000D+03 -.211303651401D+01 -.824105755884D-08
    -.248581783000D-09  .100000000000D+01  .157700000000D+04  .000000000000D+00
     .240000000000D+01  .000000000000D+00 -.884756445885D-08  .200000000000D+02
     .424806000000D+06  .400000000000D+01
21 10  4  1 23 59 44.0 -.506485812366D-04 -.250111042988D-11  .000000000000D+00
     .210000000000D+02  .458125000000D+02  .479877131666D-08  .221451426672D+01
     .228732824326D-05  .162437728141D-01  .126827508211D-04  .515369901085D+04
     .431984000000D+06 -.348314642906D-06  .383687048437D+00 -.251457095146D-06
     .933253349451D+00  .120250000000D+03 -.250573037455D+01 -.797711799327D-08
    -.306441335940D-09  .100000000000D+01  .157700000000D+04  .000000000000D+00
     .240000000000D+01  .000000000000D+00 -.121071934700D-07  .210000000000D+02
     .424806000000D+06  .400000000000D+01
22 10  4  1 23 59 44.0  .175476074219D-03 -.909494701773D-12  .000000000000D+00
     .400000000000D+01  .124687500000D+03  .521057418419D-08  .125062610777D+00
     .642426311970D-05  .512257206719D-02  .487454235554D-05  .515366279984D+04
     .431984000000D+06 -.614672899246D-07  .144585372943D+01  .186264514923D-07
     .935485108515D+00  .272000000000D+03 -.191640573593D+01 -.868321883378D-08
     .319656172105D-09  .100000000000D+01  .157700000000D+04  .000000000000D+00
     .240000000000D+01  .000000000000D+00 -.176951289177D-07  .400000000000D+01
     .424806000000D+06  .400000000000D+01
 2 10  4  2  0  0  0.0  .242323614657D-03  .375166564481D-11  .000000000000D+00
     .310000000000D+02  .397812500000D+02  .461626371448D-08 -.152821188747D+01
     .197440385818D-05  .945672101807D-02  .117328017950D-04  .515380128479D+04
     .432000000000D+06 -.353902578354D-07  .354636690396D+00 -.160187482834D-06
     .940557810602D+00  .144625000000D+03  .300868167457D+01 -.793711632704D-08
    -.143577409147D-09  .100000000000D+01  .157700000000D+04  .000000000000D+00
     .240000000000D+01  .000000000000D+00 -.172294676304D-07  .310000000000D+02
     .424806000000D+06  .400000000000D+01
 3 10  4  2  0  0  0.0  .536261126399D-03  .511590769747D-11  .000000000000D+00
     .620000000000D+02 -.260625000000D+02  .556773191838D-08 -.161820590150D+01
    -.127777457237D-05  .129422962200D-01  .488944351673D-05  .515369270706D+04
     .432000000000D+06  .292435288429D-06 -.796699087063D+00 -.745058059692D-08
     .926947909204D+00  .264437500000D+03  .986424062327D+00 -.846213819631D-08
    -.215723271454D-09  .100000000000D+01  .157700000000D+04  .000000000000D+00
     .240000000000D+01  .000000000000D+00 -.419095158577D-08  .620000000000D+02
     .424806000000D+06  .400000000000D+01
 4 10  4  2  0  0  0.0  .504185445607D-04  .864019966684D-11  .000000000000D+00
     .680000000000D+02  .459375000000D+02  .471091051405D-08  .153841060770D+01
     .246986746788D-05  .909428938758D-02  .116284936666D-04  .515366829491D+04
     .432000000000D+06 -.707805156708D-07  .372562173796D+00  .521540641785D-07
     .939699924719D+00  .147343750000D+03  .600512136392D+00 -.805819279893D-08
    -.354657630057D-09  .100000000000D+01  .157700000000D+04  .000000000000D+00
     .240000000000D+01  .000000000000D+00 -.605359673500D-08  .680000000000D+02
     .424806000000D+06  .400000000000D+01
 5 10  4  2  0  0  0.0 -.226870179176D-05  .568434188608D-12  .000000000000D+00
     .610000000000D+02  .126593750000D+03  .457519057505D-08 -.138429003609D-01
     .666454434395D-05  .189939490519D-02  .461377203465D-05  .515368268776D+04
     .432000000000D+06  .782310962677D-07  .141396087621D+01 -.204890966415D-07
     .958794203593D+00  .289218750000D+03  .345435709561D+00 -.830891752834D-08
     .370729728096D-09  .100000000000D+01  .157700000000D+04  .000000000000D+00
     .240000000000D+01  .000000000000D+00 -.884756445885D-08  .610000000000D+02
     .424806000000D+06  .400000000000D+01
 6 10  4  2  0  0  0.0  .676332041621D-03 -.852651282912D-11  .000000000000D+00
     .970000000000D+02 -.320000000000D+02  .547915680030D-08  .626353035032D+00
    -.183470547199D-05  .615956273396D-02  .577047467232D-05  .515365561867D+04
     .432000000000D+06 -.111758708954D-07 -.726533729469D+00 -.987201929092D-07
     .934360907174D+00  .257281250000D+03 -.111088735360D+01 -.859857245077D-08
    -.353228999120D-09  .100000000000D+01  .157700000000D+04  .000000000000D+00
     .240000000000D+01  .000000000000D+00 -.465661287308D-08  .970000000000D+02
     .424806000000D+06  .400000000000D+01
 7 10  4  2  0  0  0.0  .960193574429D-06 -.454747350886D-12  .000000000000D+00
     .900000000000D+01 -.779375000000D+02  .409409910709D-08 -.314137569260D+01
    -.404380261898D-05  .332334428094D-02  .107269734144D-04  .515372553062D+04
     .432000000000D+06 -.521540641785D-07 -.276889607566D+01  .745058059692D-08
     .971345748129D+00  .180000000000D+03  .305441099278D+01 -.770603527301D-08
     .464305054455D-10  .100000000000D+01  .157700000000D+04  .000000000000D+00
     .240000000000D+01  .000000000000D+00 -.107102096081D-07  .900000000000D+01
     .424806000000D+06  .400000000000D+01
 8 10  4  2  0  0  0.0  .456720590591D-05  .227373675443D-12  .000000000000D+00
     .103000000000D+03 -.724062500000D+02  .362443668662D-08  .252272646024D+01
    -.367313623428D-05  .109856342897D-01  .114962458611D-04  .515370878792D+04
     .432000000000D+06 -.188127160072D-06 -.270217891399D+01  .130385160446D-06
     .992670336315D+00  .177656250000D+03  .309404938426D+01 -.742495213620D-08
     .696457581682D-10  .100000000000D+01  .157700000000D+04  .000000000000D+00
     .340000000000D+01  .000000000000D+00 -.419095158577D-08  .103000000000D+03
     .424806000000D+06  .400000000000D+01
10 10  4  2  0  0  0.0 -.392966903746D-04 -.909494701773D-12  .000000000000D+00
     .177000000000D+03  .114687500000D+03  .479984278986D-08  .318816355638D-01
     .610388815403D-05  .918031320907D-02  .444985926151D-05  .515348225784D+04
     .432000000000D+06  .104308128357D-06  .144005054699D+01  .143423676491D-06
     .953817057852D+00  .291031250000D+03  .663076585653D+00 -.849821112746D-08
     .329299430929D-09  .100000000000D+01  .157700000000D+04  .000000000000D+00
     .340000000000D+01  .000000000000D+00 -.279396772385D-08  .177000000000D+03
     .424806000000D+06  .400000000000D+01
11 10  4  2  0  0  0.0 -.540385954082D-04 -.216004991671D-11  .000000000000D+00
     .180000000000D+02 -.562500000000D+00  .582881422208D-08  .303704539299D+01
    -.465661287308D-07  .105456393212D-01  .108256936073D-04  .515373717308D+04
     .432000000000D+06  .000000000000D+00  .138976821080D+00 -.838190317154D-07
     .889032406580D+00  .131781250000D+03  .797886644461D+00 -.840713590524D-08
    -.361800784741D-09  .100000000000D+01  .157700000000D+04  .000000000000D+00
     .240000000000D+01  .000000000000D+00 -.116415321827D-07  .180000000000D+02
     .424806000000D+06  .400000000000D+01
12 10  4  2  0  0  0.0 -.131630338728D-03  .443378667114D-11  .000000000000D+00
     .230000000000D+02  .175625000000D+02  .443554190098D-08 -.309175598661D+01
     .873580574989D-06  .352356606163D-02  .784359872341D-05  .515371763420D+04
     .432000000000D+06 -.372529029846D-07 -.171549869471D+01  .726431608200D-07
     .969837431313D+00  .231187500000D+03 -.511179912855D+00 -.785854162552D-08
     .516450083648D-09  .100000000000D+01  .157700000000D+04  .000000000000D+00
     .240000000000D+01  .000000000000D+00 -.121071934700D-07  .230000000000D+02
     .424806000000D+06  .400000000000D+01
13 10  4  2  0  0  0.0  .305654946715D-03 -.341060513165D-12  .000000000000D+00
     .810000000000D+02 -.646562500000D+02  .407481258944D-08 -.625692754272D+00
    -.345334410667D-05  .433875177987D-02  .346079468727D-05  .515356660461D+04
     .432000000000D+06 -.242143869400D-07  .253224816977D+01 -.353902578354D-07
     .993224396057D+00  .333718750000D+03  .165271877810D+01 -.811069498586D-08
    -.218937691062D-09  .100000000000D+01  .157700000000D+04  .000000000000D+00
     .240000000000D+01  .000000000000D+00 -.111758708954D-07  .810000000000D+02
     .424806000000D+06  .400000000000D+01
